{
    "links": {
        "self": "http://www.neowsapp.com/rest/v1/neo/3668976?api_key=iIulBulltgU6a56xZRHN4H3l9WmuAYTsLGpBGhQ2"
    },
    "id": "3668976",
    "neo_reference_id": "3668976",
    "name": "(2014 HV2)",
    "designation": "2014 HV2",
    "nasa_jpl_url": "http://ssd.jpl.nasa.gov/sbdb.cgi?sstr=3668976",
    "absolute_magnitude_h": 25.9,
    "estimated_diameter": {
        "kilometers": {
            "estimated_diameter_min": 0.0175612318,
            "estimated_diameter_max": 0.0392681082
        },
        "meters": {
            "estimated_diameter_min": 17.561231848,
            "estimated_diameter_max": 39.2681081809
        },
        "miles": {
            "estimated_diameter_min": 0.0109120402,
            "estimated_diameter_max": 0.0244000636
        },
        "feet": {
            "estimated_diameter_min": 57.6155918963,
            "estimated_diameter_max": 128.8323800441
        }
    },
    "is_potentially_hazardous_asteroid": false,
    "close_approach_data": [
        {
            "close_approach_date": "2014-04-29",
            "close_approach_date_full": "2014-Apr-29 08:29",
            "epoch_date_close_approach": 1398760140000,
            "relative_velocity": {
                "kilometers_per_second": "13.0128993232",
                "kilometers_per_hour": "46846.4375634296",
                "miles_per_hour": "29108.5544960099"
            },
            "miss_distance": {
                "astronomical": "0.0034926704",
                "lunar": "1.3586487856",
                "kilometers": "522496.052452048",
                "miles": "324663.9921243424"
            },
            "orbiting_body": "Earth"
        },
        {
            "close_approach_date": "2014-04-29",
            "close_approach_date_full": "2014-Apr-29 14:37",
            "epoch_date_close_approach": 1398782220000,
            "relative_velocity": {
                "kilometers_per_second": "13.4464018239",
                "kilometers_per_hour": "48407.0465661268",
                "miles_per_hour": "30078.2562399358"
            },
            "miss_distance": {
                "astronomical": "0.0046380944",
                "lunar": "1.8042187216",
                "kilometers": "693849.043098928",
                "miles": "431137.8032560864"
            },
            "orbiting_body": "Moon"
        },
        {
            "close_approach_date": "2017-03-29",
            "close_approach_date_full": "2017-Mar-29 04:59",
            "epoch_date_close_approach": 1490763540000,
            "relative_velocity": {
                "kilometers_per_second": "27.1445865315",
                "kilometers_per_hour": "97720.5115133903",
                "miles_per_hour": "60719.7256123063"
            },
            "miss_distance": {
                "astronomical": "0.4852913315",
                "lunar": "188.7783279535",
                "kilometers": "72598549.521863905",
                "miles": "45110646.864395689"
            },
            "orbiting_body": "Earth"
        },
        {
            "close_approach_date": "2151-09-05",
            "close_approach_date_full": "2151-Sep-05 10:26",
            "epoch_date_close_approach": 5733195960000,
            "relative_velocity": {
                "kilometers_per_second": "20.9923943919",
                "kilometers_per_hour": "75572.6198109728",
                "miles_per_hour": "46957.8870153237"
            },
            "miss_distance": {
                "astronomical": "0.2956498177",
                "lunar": "115.0077790853",
                "kilometers": "44228582.993808299",
                "miles": "27482367.0980565662"
            },
            "orbiting_body": "Earth"
        }
    ],
    "orbital_data": {
        "orbit_id": "8",
        "orbit_determination_date": "2017-04-06 08:41:32",
        "first_observation_date": "2014-04-22",
        "last_observation_date": "2014-04-28",
        "data_arc_in_days": 6,
        "observations_used": 69,
        "orbit_uncertainty": "8",
        "minimum_orbit_intersection": ".000390069",
        "jupiter_tisserand_invariant": "3.534",
        "epoch_osculation": "2456771.5",
        "eccentricity": ".5767457718659523",
        "semi_major_axis": "2.077164077699376",
        "inclination": "4.246119445932751",
        "ascending_node_longitude": "39.46641727117442",
        "orbital_period": "1093.464358775563",
        "perihelion_distance": ".8791684784144204",
        "perihelion_argument": "228.9432091947818",
        "aphelion_distance": "3.275159676984332",
        "perihelion_time": "2456813.075159397709",
        "mean_anomaly": "346.3122585907281",
        "mean_motion": ".3292288377859156",
        "equinox": "J2000",
        "orbit_class": {
            "orbit_class_type": "APO",
            "orbit_class_description": "Near-Earth asteroid orbits which cross the Earth’s orbit similar to that of 1862 Apollo",
            "orbit_class_range": "a (semi-major axis) > 1.0 AU; q (perihelion) < 1.017 AU"
        }
    },
    "is_sentry_object": false
}